[
    {
        "Altitude(m)": 622200.0974893601,
        "Argument of Periapsis(deg)": 0.0,
        "Eccentricity": 0.0,
        "Inclination(deg)": 60.0,
        "Latitude(deg)": -52.16251142365976,
        "Longitude(deg)": 162.36063547945682,
        "Mean Anomaly(deg)": -65.45449999999998,
        "RAAN(deg)": 310.0,
        "Satellite Name": "Test1 1382",
        "Satellite Number": 1382,
        "Semi-Major Axis(m)": 6980739.136638005,
        "Time(s)": 0
    },
    {
        "Altitude(m)": 622058.2656543504,
        "Argument of Periapsis(deg)": 0.00010418945913296404,
        "Eccentricity": 0.0,
        "Inclination(deg)": 60.0,
        "Latitude(deg)": -51.799262301722344,
        "Longitude(deg)": 163.12869443851025,
        "Mean Anomaly(deg)": -64.83439385453813,
        "RAAN(deg)": 309.99957995086027,
        "Satellite Name": "Test1 1382",
        "Satellite Number": 1382,
        "Semi-Major Axis(m)": 6980739.136638005,
        "Time(s)": 10
    }
]